ORBCOMM FM24 [-]        
1 25478U 98053D   23336.32061277  .00004763  00000+0  17061-2 0  9992
2 25478  45.0096  50.8467 0002787 255.4836 104.5702 14.34976371316519
ORBCOMM FM25 [-]        
1 25479U 98053E   23336.28503750  .00004699  00000+0  16844-2 0  9991
2 25479  45.0080  49.2503 0004587 286.6089  73.4255 14.34960813316805
ORBCOMM FM26 [-]        
1 25480U 98053F   23336.30499130  .00004251  00000+0  15425-2 0  9990
2 25480  45.0084  42.6645 0006087 312.0676  47.9653 14.34502503316859
ORBCOMM FM27 [+]        
1 25481U 98053G   23336.27066453  .00004726  00000+0  16949-2 0  9994
2 25481  45.0066  49.5765 0001716 224.5177 135.5533 14.34935405316779
ORBCOMM FM28 [-]        
1 25482U 98053H   23336.03025093  .00003062  00000+0  11049-2 0  9992
2 25482  45.0073 349.7452 0004646 329.4467  30.6109 14.35412153317369
ORBCOMM FM30 [-]        
1 25980U 99065A   23336.83947120  .00001713  00000+0  64992-3 0  9998
2 25980  45.0306 225.5210 0006301  66.2139 293.9368 14.34632688253621
ORBCOMM FM31 [-]        
1 25981U 99065B   23336.80623553  .00001677  00000+0  63721-3 0  9995
2 25981  45.0222 219.4961 0003194  83.4756 276.6454 14.34650623253170
ORBCOMM FM32 [+]        
1 25982U 99065C   23334.86058686  .00002040  00000+0  78047-3 0  9991
2 25982  45.0156 241.2883 0005268  77.4557 282.6879 14.33587707253549
